[{"OBJECT_NAME":"SUPERVIEW NEO-3 02","OBJECT_ID":"2025-051A","EPOCH":"2026-03-09T23:45:14.766336","MEAN_MOTION":15.23140616,"ECCENTRICITY":0.00022991,"INCLINATION":97.4564,"RA_OF_ASC_NODE":148.8655,"ARG_OF_PERICENTER":127.1916,"MEAN_ANOMALY":232.9531,"EPHEMERIS_TYPE":0,"CLASSIFICATION_TYPE":"U","NORAD_CAT_ID":63208,"ELEMENT_SET_NO":999,"REV_AT_EPOCH":5473,"BSTAR":0.00055163921,"MEAN_MOTION_DOT":0.00012967,"MEAN_MOTION_DDOT":0},{"OBJECT_NAME":"COSMOS 2251 DEB","OBJECT_ID":"1993-036SV","EPOCH":"2026-03-09T21:55:42.811680","MEAN_MOTION":15.15006345,"ECCENTRICITY":0.00579573,"INCLINATION":74.0283,"RA_OF_ASC_NODE":1.8812,"ARG_OF_PERICENTER":55.6817,"MEAN_ANOMALY":304.9843,"EPHEMERIS_TYPE":0,"CLASSIFICATION_TYPE":"U","NORAD_CAT_ID":34452,"ELEMENT_SET_NO":999,"REV_AT_EPOCH":91981,"BSTAR":0.0011020825,"MEAN_MOTION_DOT":0.00021495,"MEAN_MOTION_DDOT":0}]
